OBJECT_NAME,OBJECT_ID,EPOCH,MEAN_MOTION,ECCENTRICITY,INCLINATION,RA_OF_ASC_NODE,ARG_OF_PERICENTER,MEAN_ANOMALY,EPHEMERIS_TYPE,CLASSIFICATION_TYPE,NORAD_CAT_ID,ELEMENT_SET_NO,REV_AT_EPOCH,BSTAR,MEAN_MOTION_DOT,MEAN_MOTION_DDOT
TURKSAT 4B,2015-060A,2026-06-10T04:58:25.370112,1.00269139,.00023614,0.0157,45.7848,19.7104,317.6812,0,U,40984,999,3902,0,.133E-5,0
ZHONGXING-2C,2015-063A,2026-06-08T19:00:31.049856,1.00268146,.00077083,0.2508,90.2727,95.8860,99.5530,0,U,41021,999,3889,0,-.307E-5,0
GSAT-15,2015-065A,2026-06-09T08:38:55.419360,1.00270540,.00039233,0.0513,110.7137,328.9417,41.3237,0,U,41028,999,3872,0,-.241E-5,0
BADR-7 (ARABSAT-6B),2015-065B,2026-06-10T06:34:09.954912,1.00271133,.00034604,0.0347,234.0738,324.8639,184.2264,0,U,41029,999,3869,0,.162E-5,0
LAOSAT 1,2015-067A,2026-06-10T07:03:26.428896,1.00273123,.00024116,0.0391,179.4542,215.2621,98.3130,0,U,41034,999,3879,0,-.325E-5,0
TELSTAR 12V,2015-068A,2026-06-09T09:50:41.254080,1.00271046,.0002305,0.0235,65.7170,10.9367,313.8139,0,U,41036,999,3854,0,-.102E-5,0
ELEKTRO-L 2,2015-074A,2026-06-10T01:14:32.122752,1.00271662,.00008802,6.6749,70.6113,278.5236,273.4303,0,U,41105,999,3843,0,-.102E-5,0
COSMOS 2513,2015-075A,2026-06-10T03:24:27.576576,1.00273179,.00034557,0.0772,99.5250,332.1425,318.2161,0,U,41121,999,3847,0,-.121E-5,0
EXPRESS-AMU1,2015-082A,2026-06-10T06:37:09.667776,1.00270530,.00026695,0.0188,3.5258,78.6011,311.8922,0,U,41191,999,3819,0,.173E-5,0
BELINTERSAT-1,2016-001A,2026-06-10T03:16:13.365984,1.00269866,.000198,0.0478,120.9515,284.9357,313.1696,0,U,41238,999,3816,0,.125E-5,0
IRNSS-1E,2016-003A,2026-06-09T15:34:40.861056,1.00268584,.00179263,33.2186,59.8594,179.3195,4.1979,0,U,41241,999,3800,0,-.299E-5,0
EUTELSAT 9B,2016-005A,2026-06-10T04:46:41.495232,1.00272748,.00017451,0.0627,72.9311,333.6847,292.6138,0,U,41310,999,3804,0,.79E-6,0
SES-9,2016-013A,2026-06-09T01:52:23.570976,1.00273663,.000199,0.0108,336.9667,107.7708,309.1219,0,U,41380,999,3735,0,-.329E-5,0
EUTELSAT 65 WEST A,2016-014A,2026-06-10T06:08:12.442848,1.00271763,.00021942,0.0508,11.7547,57.6263,216.1080,0,U,41382,999,3745,0,-.259E-5,0
IRNSS-1F,2016-015A,2026-06-10T01:28:13.010880,1.00279064,.00165706,5.3311,96.9420,186.6626,29.4952,0,U,41384,999,3759,0,.175E-5,0
BEIDOU-2 IGSO-6,2016-021A,2026-06-08T23:55:01.304832,1.00261117,.00571186,60.2137,38.1225,231.5364,79.8340,0,U,41434,999,3739,0,-.154E-5,0
IRNSS-1G,2016-027A,2026-06-10T07:03:48.892896,1.00269562,.0007507,5.1812,97.6325,353.2173,43.3330,0,U,41469,999,3711,0,-.317E-5,0
JCSAT-2B,2016-028A,2026-06-09T17:29:31.419168,1.00269565,.0000778,0.0181,343.7786,117.9993,212.7061,0,U,41471,999,3705,0,-.148E-5,0
THAICOM 8,2016-031A,2026-06-10T03:23:57.625152,1.00270214,.00036347,0.0693,47.8493,10.1551,330.0249,0,U,41552,999,3664,0,-.104E-5,0
INTELSAT 31 (IS-31),2016-035A,2026-06-10T05:59:40.553088,1.00269751,.0000987,0.0171,265.1306,337.9900,10.3653,0,U,41581,999,3661,0,-.133E-5,0
BEIDOU-2 G7,2016-037A,2026-06-10T00:07:46.392384,1.00268148,.00071682,1.7011,69.2567,3.1066,298.4783,0,U,41586,999,681,0,-.336E-5,0
ABS-2A (MONGOLSAT-1),2016-038A,2026-06-09T20:32:10.142016,1.00267595,.0001258,0.0180,325.8688,57.0366,258.1105,0,U,41588,999,3663,0,0,0
EUTELSAT 117 WEST B,2016-038B,2026-06-09T00:48:06.000192,1.00276750,.00003453,0.0422,159.6913,138.3370,214.4010,0,U,41589,999,3658,0,.4E-7,0
BRISAT,2016-039A,2026-06-09T22:36:28.785312,1.00268701,.00019949,0.0231,320.1453,118.8641,308.9105,0,U,41591,999,3653,0,0,0
ECHOSTAR 18,2016-039B,2026-06-09T01:04:05.071296,1.00271708,.00013931,0.0178,340.8727,102.1330,129.0878,0,U,41592,999,3654,0,-.265E-5,0
MUOS-5,2016-041A,2026-06-10T05:44:06.112032,1.00271136,.01970558,2.2194,301.5061,260.8825,37.0035,0,U,41622,999,3701,0,-.96E-6,0
TIANTONG-1 1,2016-048A,2026-06-10T02:42:21.580992,1.00270095,.00059796,3.8350,43.3498,43.7677,313.3728,0,U,41725,999,3619,0,-.302E-5,0
JCSAT-16,2016-050A,2026-06-09T05:27:58.431168,1.00270108,.0000921,0.0177,356.2594,90.5519,36.7275,0,U,41729,999,3599,0,-.234E-5,0
USA 270,2016-052A,2026-06-08T02:16:56.129376,1.00284145,.0008515,4.1755,77.3049,337.9683,59.8197,0,U,41744,999,2804,0,.95E-6,0
USA 271,2016-052B,2026-06-07T19:08:42.969984,1.00262239,.0010783,4.1460,77.3775,157.2143,71.4983,0,U,41745,999,2782,0,-.344E-5,0
INTELSAT 36 (IS-36),2016-053A,2026-06-10T05:03:47.356128,1.00270448,.00018589,0.0115,357.5036,336.5539,68.9581,0,U,41747,999,3588,0,-.7E-7,0
