TURKSAT 4B              
1 40984U 15060A   26161.20723808  .00000133  00000+0  00000+0 0  9998
2 40984   0.0157  45.7848 0002361  19.7104 317.6812  1.00269139 39023
ZHONGXING-2C            
1 41021U 15063A   26159.79202604 -.00000307  00000+0  00000+0 0  9995
2 41021   0.2508  90.2727 0007708  95.8860  99.5530  1.00268146 38897
GSAT-15                 
1 41028U 15065A   26160.36036365 -.00000241  00000+0  00000+0 0  9995
2 41028   0.0513 110.7137 0003923 328.9417  41.3237  1.00270540 38726
BADR-7 (ARABSAT-6B)     
1 41029U 15065B   26161.27372633  .00000162  00000+0  00000+0 0  9999
2 41029   0.0347 234.0738 0003460 324.8639 184.2264  1.00271133 38698
LAOSAT 1                
1 41034U 15067A   26161.29405589 -.00000325  00000+0  00000+0 0  9998
2 41034   0.0391 179.4542 0002411 215.2621  98.3130  1.00273123 38796
TELSTAR 12V             
1 41036U 15068A   26160.41019970 -.00000102  00000+0  00000+0 0  9992
2 41036   0.0235  65.7170 0002305  10.9367 313.8139  1.00271046 38547
ELEKTRO-L 2             
1 41105U 15074A   26161.05176068 -.00000102  00000+0  00000+0 0  9999
2 41105   6.6749  70.6113 0000880 278.5236 273.4303  1.00271662 38437
COSMOS 2513             
1 41121U 15075A   26161.14198584 -.00000121  00000+0  00000+0 0  9996
2 41121   0.0772  99.5250 0003455 332.1425 318.2161  1.00273179 38478
EXPRESS-AMU1            
1 41191U 15082A   26161.27580634  .00000173  00000+0  00000+0 0  9992
2 41191   0.0188   3.5258 0002669  78.6011 311.8922  1.00270530 38199
BELINTERSAT-1           
1 41238U 16001A   26161.13626581  .00000125  00000+0  00000+0 0  9990
2 41238   0.0478 120.9515 0001980 284.9357 313.1696  1.00269866 38163
IRNSS-1E                
1 41241U 16003A   26160.64908404 -.00000299  00000+0  00000+0 0  9991
2 41241  33.2186  59.8594 0017926 179.3195   4.1979  1.00268584 38002
EUTELSAT 9B             
1 41310U 16005A   26161.19909138  .00000079  00000+0  00000+0 0  9991
2 41310   0.0627  72.9311 0001745 333.6847 292.6138  1.00272748 38047
SES-9                   
1 41380U 16013A   26160.07805059 -.00000329  00000+0  00000+0 0  9999
2 41380   0.0108 336.9667 0001990 107.7708 309.1219  1.00273663 37357
EUTELSAT 65 WEST A      
1 41382U 16014A   26161.25569957 -.00000259  00000+0  00000+0 0  9999
2 41382   0.0508  11.7547 0002194  57.6263 216.1080  1.00271763 37457
IRNSS-1F                
1 41384U 16015A   26161.06126170  .00000175  00000+0  00000+0 0  9993
2 41384   5.3311  96.9420 0016570 186.6626  29.4952  1.00279064 37593
BEIDOU-2 IGSO-6         
1 41434U 16021A   26159.99654288 -.00000154  00000+0  00000+0 0  9999
2 41434  60.2137  38.1225 0057118 231.5364  79.8340  1.00261117 37396
IRNSS-1G                
1 41469U 16027A   26161.29431589 -.00000317  00000+0  00000+0 0  9997
2 41469   5.1812  97.6325 0007507 353.2173  43.3330  1.00269562 37117
JCSAT-2B                
1 41471U 16028A   26160.72883587 -.00000148  00000+0  00000+0 0  9999
2 41471   0.0181 343.7786 0000778 117.9993 212.7061  1.00269565 37056
THAICOM 8               
1 41552U 16031A   26161.14163918 -.00000104  00000+0  00000+0 0  9991
2 41552   0.0693  47.8493 0003634  10.1551 330.0249  1.00270214 36648
INTELSAT 31 (IS-31)     
1 41581U 16035A   26161.24977492 -.00000133  00000+0  00000+0 0  9990
2 41581   0.0171 265.1306 0000987 337.9900  10.3653  1.00269751 36613
BEIDOU-2 G7             
1 41586U 16037A   26161.00539806 -.00000336  00000+0  00000+0 0  9999
2 41586   1.7011  69.2567 0007168   3.1066 298.4783  1.00268148  6815
ABS-2A (MONGOLSAT-1)    
1 41588U 16038A   26160.85567294  .00000000  00000+0  00000+0 0  9993
2 41588   0.0180 325.8688 0001258  57.0366 258.1105  1.00267595 36635
EUTELSAT 117 WEST B     
1 41589U 16038B   26160.03340278  .00000004  00000+0  00000+0 0  9999
2 41589   0.0422 159.6913 0000345 138.3370 214.4010  1.00276750 36580
BRISAT                  
1 41591U 16039A   26160.94199983  .00000000  00000+0  00000+0 0  9994
2 41591   0.0231 320.1453 0001994 118.8641 308.9105  1.00268701 36536
ECHOSTAR 18             
1 41592U 16039B   26160.04450314 -.00000265  00000+0  00000+0 0  9998
2 41592   0.0178 340.8727 0001393 102.1330 129.0878  1.00271708 36545
MUOS-5                  
1 41622U 16041A   26161.23895963 -.00000096  00000+0  00000+0 0  9992
2 41622   2.2194 301.5061 0197055 260.8825  37.0035  1.00271136 37019
TIANTONG-1 1            
1 41725U 16048A   26161.11274978 -.00000302  00000+0  00000+0 0  9997
2 41725   3.8350  43.3498 0005979  43.7677 313.3728  1.00270095 36195
JCSAT-16                
1 41729U 16050A   26160.22775962 -.00000234  00000+0  00000+0 0  9998
2 41729   0.0177 356.2594 0000921  90.5519  36.7275  1.00270108 35990
USA 270                 
1 41744U 16052A   26159.09509409  .00000095  00000+0  00000+0 0  9995
2 41744   4.1755  77.3049 0008515 337.9683  59.8197  1.00284145 28040
USA 271                 
1 41745U 16052B   26158.79771956 -.00000344  00000+0  00000+0 0  9998
2 41745   4.1460  77.3775 0010783 157.2143  71.4983  1.00262239 27822
INTELSAT 36 (IS-36)     
1 41747U 16053A   26161.21096477 -.00000007  00000+0  00000+0 0  9996
2 41747   0.0115 357.5036 0001858 336.5539  68.9581  1.00270448 35884
